{"type":"FeatureCollection","features":[{"type":"Feature","geometry":{"type":"Polygon","coordinates":[[[-117.16474627149701,32.71988746948892],[-117.16476021920012,32.72091806176952],[-117.1647677218135,32.72195419348792],[-117.16478506074802,32.722998501420065],[-117.16478572074942,32.72337504240997],[-117.16476518757707,32.72390291044295],[-117.16454558278494,32.72373413038369],[-117.16449971203774,32.723700452264566],[-117.16386770080773,32.72323643531056],[-117.1638673535855,32.7232361790832],[-117.16303041945469,32.722797117714734],[-117.16295849581863,32.722759170963826],[-117.16247959340433,32.72266172597917],[-117.16204615479285,32.7225735248836],[-117.16204565636586,32.722573500615155],[-117.16114231577713,32.72253350732035],[-117.1611418312174,32.72253348294584],[-117.16021927197474,32.72261725366638],[-117.15932109013099,32.72285750185986],[-117.15830573816417,32.72295837743389],[-117.15829073189519,32.72296364409867],[-117.15827516142723,32.72296757673168],[-117.15826225996614,32.72296974664233],[-117.1574851821029,32.72297271784965],[-117.15657805438934,32.72297664010094],[-117.15598665542146,32.722984634835925],[-117.1556872686151,32.72298868120956],[-117.15568723834899,32.72291016319512],[-117.15568711938162,32.72260729886802],[-117.155686883402,32.72200196787436],[-117.1556854902535,32.72161382891021],[-117.1556840045951,32.72119997296368],[-117.1556833914317,32.72102901991582],[-117.15564729351253,32.72036414517822],[-117.15576948145255,32.72023131864944],[-117.15586944775191,32.72015087775773],[-117.15601801140076,32.72005358605745],[-117.15616357901455,32.719981058169346],[-117.15626721969082,32.7199418175744],[-117.15655942590733,32.71990119105209],[-117.15565238731146,32.71991060308793],[-117.15514156912572,32.7198792417564],[-117.1550849498506,32.71987169036756],[-117.15502816701125,32.71984820908848],[-117.15498067060251,32.719811381504854],[-117.15495199242346,32.719771761106536],[-117.15484466146322,32.71941407211549],[-117.15484679306924,32.71931580725144],[-117.15484668684923,32.71928438135124],[-117.15484952573391,32.71925304708754],[-117.15485529187897,32.719222001382725],[-117.1548639490436,32.719191439345586],[-117.15487544281845,32.719161553044934],[-117.15488970096742,32.71913253030277],[-117.15490663388188,32.719104553513816],[-117.15492613514373,32.719077798499264],[-117.15494808219442,32.71905243340188],[-117.1549723371051,32.71902861762932],[-117.15499874744336,32.7190065008523],[-117.15502714723148,32.71898622206411],[-117.1550573579893,32.71896790870703],[-117.15508918985601,32.71895167587147],[-117.1551224427833,32.71893762557282],[-117.15515690779239,32.718925846110146],[-117.15533861954287,32.71887946502962],[-117.15533941631693,32.71887945918102],[-117.15562876475924,32.71887733492674],[-117.15655210472727,32.71887330018584],[-117.15744618583807,32.71886947380527],[-117.15835974510426,32.718862748983],[-117.15929283913766,32.718858621885246],[-117.16018366782167,32.71885479963718],[-117.16111023109225,32.71884795847468],[-117.16202704094609,32.718841182473206],[-117.16293084523045,32.71883449592246],[-117.16384768329934,32.71883045468653],[-117.16444913599756,32.71882599685991],[-117.16473523295409,32.718823875346715],[-117.16486509096217,32.718823325181134],[-117.16560005233589,32.71882020687028],[-117.16559932217447,32.71921806001573],[-117.16559809680052,32.719883897473764],[-117.16474627149701,32.71988746948892]]]},"properties":{"neighborhood":"Cortez","crosswalk_note":"Rolled up from DowntownCounts_Monthly area_source_label via Area_Crosswalk.csv (RawCounts_AllYears rows), 1:1 label match.","latest_month":"2025-12","latest_total":83.0,"history":[{"date":"2017-01-01","total":32.0},{"date":"2017-02-01","total":42.0},{"date":"2017-03-01","total":37.0},{"date":"2017-04-01","total":26.0},{"date":"2017-05-01","total":49.0},{"date":"2017-06-01","total":57.0},{"date":"2017-07-01","total":64.0},{"date":"2017-08-01","total":71.0},{"date":"2017-09-01","total":95.0},{"date":"2017-10-01","total":78.0},{"date":"2017-11-01","total":58.0},{"date":"2017-12-01","total":53.0},{"date":"2018-01-01","total":61.0},{"date":"2018-02-01","total":56.0},{"date":"2018-03-01","total":72.0},{"date":"2018-04-01","total":44.0},{"date":"2018-05-01","total":52.0},{"date":"2018-06-01","total":40.0},{"date":"2018-07-01","total":47.0},{"date":"2018-08-01","total":54.0},{"date":"2018-09-01","total":32.0},{"date":"2018-10-01","total":16.0},{"date":"2018-11-01","total":46.0},{"date":"2018-12-01","total":40.0},{"date":"2019-01-01","total":54.0},{"date":"2019-02-01","total":33.0},{"date":"2019-03-01","total":53.0},{"date":"2019-04-01","total":44.0},{"date":"2019-05-01","total":45.0},{"date":"2019-06-01","total":46.0},{"date":"2019-07-01","total":71.0},{"date":"2019-08-01","total":31.0},{"date":"2019-09-01","total":55.0},{"date":"2019-10-01","total":39.0},{"date":"2019-11-01","total":26.0},{"date":"2019-12-01","total":20.0},{"date":"2020-01-01","total":48.0},{"date":"2020-02-01","total":49.0},{"date":"2020-03-01","total":28.0},{"date":"2020-04-01","total":20.0},{"date":"2020-05-01","total":24.0},{"date":"2020-06-01","total":39.0},{"date":"2020-07-01","total":24.0},{"date":"2020-08-01","total":22.0},{"date":"2020-09-01","total":17.0},{"date":"2020-10-01","total":33.0},{"date":"2020-11-01","total":23.0},{"date":"2020-12-01","total":52.0},{"date":"2021-01-01","total":47.0},{"date":"2021-02-01","total":44.0},{"date":"2021-03-01","total":30.0},{"date":"2021-04-01","total":32.0},{"date":"2021-05-01","total":30.0},{"date":"2021-06-01","total":27.0},{"date":"2021-07-01","total":44.0},{"date":"2021-08-01","total":34.0},{"date":"2021-09-01","total":29.0},{"date":"2021-10-01","total":35.0},{"date":"2021-11-01","total":31.0},{"date":"2021-12-01","total":46.0},{"date":"2022-01-01","total":92.0},{"date":"2022-02-01","total":118.0},{"date":"2022-03-01","total":36.0},{"date":"2022-04-01","total":73.0},{"date":"2022-05-01","total":60.0},{"date":"2022-06-01","total":51.0},{"date":"2022-07-01","total":90.0},{"date":"2022-08-01","total":83.0},{"date":"2022-09-01","total":77.0},{"date":"2022-10-01","total":90.0},{"date":"2022-11-01","total":114.0},{"date":"2022-12-01","total":107.0},{"date":"2023-01-01","total":129.0},{"date":"2023-02-01","total":98.0},{"date":"2023-03-01","total":100.0},{"date":"2023-04-01","total":113.0},{"date":"2023-05-01","total":121.0},{"date":"2023-06-01","total":109.0},{"date":"2023-07-01","total":104.0},{"date":"2023-08-01","total":65.0},{"date":"2023-09-01","total":103.0},{"date":"2023-10-01","total":63.0},{"date":"2023-11-01","total":95.0},{"date":"2023-12-01","total":105.0},{"date":"2024-01-01","total":154.0},{"date":"2024-02-01","total":170.0},{"date":"2024-03-01","total":76.0},{"date":"2024-04-01","total":75.0},{"date":"2024-05-01","total":51.0},{"date":"2024-06-01","total":59.0},{"date":"2024-07-01","total":69.0},{"date":"2024-08-01","total":49.0},{"date":"2024-09-01","total":68.0},{"date":"2024-10-01","total":69.0},{"date":"2024-11-01","total":69.0},{"date":"2024-12-01","total":74.0},{"date":"2025-01-01","total":50.0},{"date":"2025-02-01","total":63.0},{"date":"2025-03-01","total":34.0},{"date":"2025-04-01","total":77.0},{"date":"2025-05-01","total":74.0},{"date":"2025-06-01","total":44.0},{"date":"2025-07-01","total":null},{"date":"2025-08-01","total":null},{"date":"2025-09-01","total":45.0},{"date":"2025-10-01","total":null},{"date":"2025-11-01","total":null},{"date":"2025-12-01","total":83.0}]}},{"type":"Feature","geometry":{"type":"Polygon","coordinates":[[[-117.16434660508384,32.70894254302914],[-117.16505615716315,32.70933637222717],[-117.16653075826174,32.710144476918465],[-117.16754311422663,32.71069874074028],[-117.1682048313323,32.711061022332366],[-117.1682183123147,32.7110687003891],[-117.16823184170264,32.7110763149621],[-117.16824542167608,32.711083870543746],[-117.16825905000806,32.711091358133146],[-117.1682727267361,32.711098781337064],[-117.16828645510685,32.71110614463998],[-117.16830022757922,32.71111344088403],[-117.1683140516285,32.71112067091537],[-117.16832792091174,32.711127840191594],[-117.16834183427783,32.711134940605646],[-117.16835579604924,32.71114197753577],[-117.16836980618851,32.71114894737516],[-117.1683838572767,32.711155854687924],[-117.16839795777092,32.71116269219696],[-117.16841210133781,32.71116946626172],[-117.16842628794905,32.71117617417715],[-117.16844051864298,32.71118281323027],[-117.16845479454254,32.71118938882311],[-117.16846910811616,32.71119589469966],[-117.16848347007615,32.71120233528874],[-117.16849787077669,32.711208706153485],[-117.16851231241661,32.71121501358971],[-117.16852679597784,32.711221249474406],[-117.16854132470692,32.71122741829209],[-117.16855588792914,32.71123351922051],[-117.16857049205298,32.71123955311368],[-117.16858513599315,32.7112455181761],[-117.16859981758839,32.71125141171874],[-117.1686145400946,32.71125723912773],[-117.16862929814151,32.71126299683607],[-117.16864409493807,32.71126868572165],[-117.16865892941777,32.7112743057924],[-117.16867380261891,32.71127985433524],[-117.16868870393246,32.71128533683974],[-117.16870364715759,32.71129074689083],[-117.1687186248755,32.71129608905258],[-117.16873363487791,32.71130135612736],[-117.16874868578165,32.711306556166704],[-117.16876376261756,32.711311685675184],[-117.16877887496572,32.71131674277789],[-117.16879402073057,32.71132173109733],[-117.16880919988391,32.711326647928615],[-117.16882441029256,32.7113314932875],[-117.16883965194715,32.71133626627241],[-117.16885492595176,32.71134097048198],[-117.16887023118345,32.711345600514136],[-117.16888556876512,32.71135016177097],[-117.16890092796552,32.71135464802027],[-117.16891631948761,32.71135906278917],[-117.16893174226483,32.711363406085646],[-117.16894718989792,32.71136767795736],[-117.16896267304286,32.711371877423154],[-117.16897817461613,32.71137600280683],[-117.16899370531128,32.71138005673395],[-117.16900926086221,32.71138403923629],[-117.16902484549738,32.71138794667531],[-117.16904045493176,32.71139177727949],[-117.16905608927816,32.71139554186886],[-117.16907174524295,32.71139923145058],[-117.16908743136776,32.71140284686264],[-117.16910313485413,32.711406388200544],[-117.16911886423428,32.71140985540055],[-117.16913461526082,32.71141325029788],[-117.16915038791491,32.71141657108913],[-117.1691661832349,32.71141981506142],[-117.16917741278378,32.7114220786012],[-117.16919316384296,32.711425476196084],[-117.16920894057023,32.711428778012966],[-117.16922474514551,32.71143198854427],[-117.16924058062745,32.711435094241146],[-117.16925643860577,32.71143810688887],[-117.16927232440386,32.71144102554598],[-117.1692882315753,32.711443845751816],[-117.16930416436752,32.711446565671224],[-117.16932012498862,32.711449192501725],[-117.16933609844128,32.71145172004288],[-117.16935209649499,32.71145415181388],[-117.16936811594061,32.71145648693696],[-117.16938415355038,32.71145872273087],[-117.16940021039062,32.711460859187724],[-117.16941628543253,32.7114628999221],[-117.16943237650521,32.711464841343215],[-117.16944848470342,32.711466686148164],[-117.16946460574216,32.7114684325654],[-117.16948074494462,32.71147007965343],[-117.16949689593976,32.711471630164986],[-117.1694997892759,32.7114718971505],[-117.17009357224705,32.711475656427346],[-117.17009802992443,32.71147568088186],[-117.17105716341018,32.71148226396735],[-117.17107454926975,32.71252382150062],[-117.17107752057139,32.712925756391144],[-117.17108082937959,32.71337335841163],[-117.17108141769877,32.71345293098192],[-117.17108241262109,32.713587439172265],[-117.17108590412919,32.71406936195696],[-117.17108740756736,32.71427692642531],[-117.17108975856632,32.714601526224655],[-117.17108975919763,32.71460158663668],[-117.17097651742745,32.71460121677136],[-117.17012739245101,32.714598439865995],[-117.17006559861224,32.714598237187374],[-117.16996990394523,32.71459883471739],[-117.16994886009054,32.71459896734149],[-117.16993574420106,32.71459904894288],[-117.16981896222084,32.71459949885631],[-117.16918072574401,32.71459669612776],[-117.16917150403181,32.71459665574537],[-117.16648933596802,32.71460287653199],[-117.16647710203486,32.714603044091064],[-117.16636580851187,32.71460456540473],[-117.16573191649164,32.71461323140258],[-117.16560838900655,32.71461491951674],[-117.16560832535764,32.71459955069828],[-117.1656045040722,32.71367770476488],[-117.16560407656443,32.713574630712756],[-117.16560407087897,32.71357326191057],[-117.16560241013141,32.71357326432079],[-117.1647178765688,32.71357450584198],[-117.16469050994895,32.713574543793584],[-117.16469047279361,32.71357178564059],[-117.16468360545569,32.71306440114562],[-117.16468197819422,32.71294418126002],[-117.16468010890331,32.712806085234796],[-117.16467665127541,32.712550593292804],[-117.16467656104192,32.71254395353473],[-117.16438397639992,32.71254520248533],[-117.1638020527569,32.71254768778167],[-117.1637780783327,32.71254772294221],[-117.16377623521421,32.71254772577751],[-117.162878749854,32.71254902850557],[-117.1619652290011,32.712553038491976],[-117.1619164661151,32.71255339906387],[-117.16115203957183,32.7125540966475],[-117.16106793288924,32.712554173346646],[-117.1610373747259,32.71148522750268],[-117.1610360523225,32.710413317212804],[-117.16102209303246,32.70937723001322],[-117.16099818314659,32.7083219776968],[-117.1605602319516,32.70683826659281],[-117.16173334924724,32.707490404312445],[-117.16182887811676,32.70754350583807],[-117.16290592173833,32.7081422149284],[-117.16335298880047,32.70839072595105],[-117.16421582732602,32.7088767638432],[-117.16434660508384,32.70894254302914]]]},"properties":{"neighborhood":"Marina","crosswalk_note":"Rolled up from DowntownCounts_Monthly area_source_label via Area_Crosswalk.csv (RawCounts_AllYears rows), 1:1 label match.","latest_month":"2025-12","latest_total":11.0,"history":[{"date":"2017-01-01","total":26.0},{"date":"2017-02-01","total":62.0},{"date":"2017-03-01","total":56.0},{"date":"2017-04-01","total":41.0},{"date":"2017-05-01","total":42.0},{"date":"2017-06-01","total":50.0},{"date":"2017-07-01","total":49.0},{"date":"2017-08-01","total":74.0},{"date":"2017-09-01","total":72.0},{"date":"2017-10-01","total":79.0},{"date":"2017-11-01","total":50.0},{"date":"2017-12-01","total":49.0},{"date":"2018-01-01","total":31.0},{"date":"2018-02-01","total":34.0},{"date":"2018-03-01","total":32.0},{"date":"2018-04-01","total":37.0},{"date":"2018-05-01","total":35.0},{"date":"2018-06-01","total":50.0},{"date":"2018-07-01","total":37.0},{"date":"2018-08-01","total":72.0},{"date":"2018-09-01","total":46.0},{"date":"2018-10-01","total":29.0},{"date":"2018-11-01","total":41.0},{"date":"2018-12-01","total":52.0},{"date":"2019-01-01","total":57.0},{"date":"2019-02-01","total":49.0},{"date":"2019-03-01","total":30.0},{"date":"2019-04-01","total":33.0},{"date":"2019-05-01","total":38.0},{"date":"2019-06-01","total":35.0},{"date":"2019-07-01","total":36.0},{"date":"2019-08-01","total":39.0},{"date":"2019-09-01","total":40.0},{"date":"2019-10-01","total":31.0},{"date":"2019-11-01","total":33.0},{"date":"2019-12-01","total":37.0},{"date":"2020-01-01","total":48.0},{"date":"2020-02-01","total":27.0},{"date":"2020-03-01","total":20.0},{"date":"2020-04-01","total":24.0},{"date":"2020-05-01","total":24.0},{"date":"2020-06-01","total":29.0},{"date":"2020-07-01","total":28.0},{"date":"2020-08-01","total":21.0},{"date":"2020-09-01","total":27.0},{"date":"2020-10-01","total":17.0},{"date":"2020-11-01","total":35.0},{"date":"2020-12-01","total":11.0},{"date":"2021-01-01","total":20.0},{"date":"2021-02-01","total":24.0},{"date":"2021-03-01","total":26.0},{"date":"2021-04-01","total":16.0},{"date":"2021-05-01","total":24.0},{"date":"2021-06-01","total":22.0},{"date":"2021-07-01","total":22.0},{"date":"2021-08-01","total":30.0},{"date":"2021-09-01","total":29.0},{"date":"2021-10-01","total":30.0},{"date":"2021-11-01","total":42.0},{"date":"2021-12-01","total":40.0},{"date":"2022-01-01","total":42.0},{"date":"2022-02-01","total":18.0},{"date":"2022-03-01","total":37.0},{"date":"2022-04-01","total":44.0},{"date":"2022-05-01","total":10.0},{"date":"2022-06-01","total":52.0},{"date":"2022-07-01","total":12.0},{"date":"2022-08-01","total":44.0},{"date":"2022-09-01","total":21.0},{"date":"2022-10-01","total":27.0},{"date":"2022-11-01","total":44.0},{"date":"2022-12-01","total":26.0},{"date":"2023-01-01","total":23.0},{"date":"2023-02-01","total":25.0},{"date":"2023-03-01","total":21.0},{"date":"2023-04-01","total":33.0},{"date":"2023-05-01","total":51.0},{"date":"2023-06-01","total":17.0},{"date":"2023-07-01","total":12.0},{"date":"2023-08-01","total":20.0},{"date":"2023-09-01","total":13.0},{"date":"2023-10-01","total":22.0},{"date":"2023-11-01","total":13.0},{"date":"2023-12-01","total":17.0},{"date":"2024-01-01","total":19.0},{"date":"2024-02-01","total":17.0},{"date":"2024-03-01","total":21.0},{"date":"2024-04-01","total":13.0},{"date":"2024-05-01","total":16.0},{"date":"2024-06-01","total":25.0},{"date":"2024-07-01","total":11.0},{"date":"2024-08-01","total":26.0},{"date":"2024-09-01","total":24.0},{"date":"2024-10-01","total":11.0},{"date":"2024-11-01","total":26.0},{"date":"2024-12-01","total":14.0},{"date":"2025-01-01","total":17.0},{"date":"2025-02-01","total":17.0},{"date":"2025-03-01","total":16.0},{"date":"2025-04-01","total":7.0},{"date":"2025-05-01","total":8.0},{"date":"2025-06-01","total":11.0},{"date":"2025-07-01","total":null},{"date":"2025-08-01","total":null},{"date":"2025-09-01","total":24.0},{"date":"2025-10-01","total":null},{"date":"2025-11-01","total":null},{"date":"2025-12-01","total":11.0}]}},{"type":"Feature","geometry":{"type":"Polygon","coordinates":[[[-117.15918812577705,32.70618599801628],[-117.15904933940294,32.705932261201454],[-117.15955296141382,32.70625751739468],[-117.1605602319516,32.70683826659281],[-117.16099818314659,32.7083219776968],[-117.16102209303246,32.70937723001322],[-117.1610360523225,32.710413317212804],[-117.1610373747259,32.71148522750268],[-117.16106793288924,32.712554173346646],[-117.16107245300616,32.71362056396623],[-117.16107651870256,32.71464298093493],[-117.16107712934048,32.71478977275587],[-117.16107717785269,32.71480148331672],[-117.1610782165371,32.71505149975776],[-117.16108089378142,32.71569562924324],[-117.16015758944194,32.7156996978711],[-117.15970348317003,32.715703048188836],[-117.15941435003224,32.71570518049193],[-117.15932175374492,32.715705863229],[-117.15926031904331,32.715706316165054],[-117.1592598250325,32.715637747771325],[-117.15925755026174,32.71532241740159],[-117.15925276827006,32.71465918838137],[-117.15924213687732,32.71362857438902],[-117.15923122223062,32.71257047653296],[-117.15921044199763,32.71150145831195],[-117.15920600122021,32.71044056518738],[-117.15919508740198,32.70938246742374],[-117.15919401100702,32.70833254359269],[-117.1591932216022,32.707562965457655],[-117.15919293463772,32.707282619793915],[-117.15918983570704,32.70666697513421],[-117.15918951884015,32.706578964811236],[-117.15918812577705,32.70618599801628]]]},"properties":{"neighborhood":"Gaslamp","crosswalk_note":"Rolled up from DowntownCounts_Monthly area_source_label via Area_Crosswalk.csv (RawCounts_AllYears rows), 1:1 label match.","latest_month":"2025-12","latest_total":42.0,"history":[{"date":"2017-01-01","total":42.0},{"date":"2017-02-01","total":57.0},{"date":"2017-03-01","total":40.0},{"date":"2017-04-01","total":43.0},{"date":"2017-05-01","total":49.0},{"date":"2017-06-01","total":54.0},{"date":"2017-07-01","total":48.0},{"date":"2017-08-01","total":66.0},{"date":"2017-09-01","total":85.0},{"date":"2017-10-01","total":56.0},{"date":"2017-11-01","total":42.0},{"date":"2017-12-01","total":55.0},{"date":"2018-01-01","total":44.0},{"date":"2018-02-01","total":84.0},{"date":"2018-03-01","total":93.0},{"date":"2018-04-01","total":51.0},{"date":"2018-05-01","total":68.0},{"date":"2018-06-01","total":39.0},{"date":"2018-07-01","total":45.0},{"date":"2018-08-01","total":55.0},{"date":"2018-09-01","total":53.0},{"date":"2018-10-01","total":52.0},{"date":"2018-11-01","total":69.0},{"date":"2018-12-01","total":40.0},{"date":"2019-01-01","total":59.0},{"date":"2019-02-01","total":68.0},{"date":"2019-03-01","total":59.0},{"date":"2019-04-01","total":36.0},{"date":"2019-05-01","total":65.0},{"date":"2019-06-01","total":54.0},{"date":"2019-07-01","total":52.0},{"date":"2019-08-01","total":61.0},{"date":"2019-09-01","total":77.0},{"date":"2019-10-01","total":61.0},{"date":"2019-11-01","total":62.0},{"date":"2019-12-01","total":35.0},{"date":"2020-01-01","total":59.0},{"date":"2020-02-01","total":52.0},{"date":"2020-03-01","total":62.0},{"date":"2020-04-01","total":28.0},{"date":"2020-05-01","total":42.0},{"date":"2020-06-01","total":37.0},{"date":"2020-07-01","total":51.0},{"date":"2020-08-01","total":38.0},{"date":"2020-09-01","total":47.0},{"date":"2020-10-01","total":35.0},{"date":"2020-11-01","total":31.0},{"date":"2020-12-01","total":38.0},{"date":"2021-01-01","total":31.0},{"date":"2021-02-01","total":32.0},{"date":"2021-03-01","total":30.0},{"date":"2021-04-01","total":29.0},{"date":"2021-05-01","total":35.0},{"date":"2021-06-01","total":43.0},{"date":"2021-07-01","total":21.0},{"date":"2021-08-01","total":31.0},{"date":"2021-09-01","total":44.0},{"date":"2021-10-01","total":51.0},{"date":"2021-11-01","total":46.0},{"date":"2021-12-01","total":59.0},{"date":"2022-01-01","total":64.0},{"date":"2022-02-01","total":41.0},{"date":"2022-03-01","total":70.0},{"date":"2022-04-01","total":44.0},{"date":"2022-05-01","total":44.0},{"date":"2022-06-01","total":50.0},{"date":"2022-07-01","total":28.0},{"date":"2022-08-01","total":44.0},{"date":"2022-09-01","total":62.0},{"date":"2022-10-01","total":60.0},{"date":"2022-11-01","total":54.0},{"date":"2022-12-01","total":67.0},{"date":"2023-01-01","total":46.0},{"date":"2023-02-01","total":72.0},{"date":"2023-03-01","total":64.0},{"date":"2023-04-01","total":46.0},{"date":"2023-05-01","total":57.0},{"date":"2023-06-01","total":19.0},{"date":"2023-07-01","total":25.0},{"date":"2023-08-01","total":44.0},{"date":"2023-09-01","total":51.0},{"date":"2023-10-01","total":52.0},{"date":"2023-11-01","total":36.0},{"date":"2023-12-01","total":31.0},{"date":"2024-01-01","total":47.0},{"date":"2024-02-01","total":55.0},{"date":"2024-03-01","total":36.0},{"date":"2024-04-01","total":52.0},{"date":"2024-05-01","total":77.0},{"date":"2024-06-01","total":56.0},{"date":"2024-07-01","total":54.0},{"date":"2024-08-01","total":37.0},{"date":"2024-09-01","total":46.0},{"date":"2024-10-01","total":35.0},{"date":"2024-11-01","total":40.0},{"date":"2024-12-01","total":42.0},{"date":"2025-01-01","total":41.0},{"date":"2025-02-01","total":27.0},{"date":"2025-03-01","total":32.0},{"date":"2025-04-01","total":40.0},{"date":"2025-05-01","total":23.0},{"date":"2025-06-01","total":40.0},{"date":"2025-07-01","total":null},{"date":"2025-08-01","total":null},{"date":"2025-09-01","total":52.0},{"date":"2025-10-01","total":null},{"date":"2025-11-01","total":null},{"date":"2025-12-01","total":42.0}]}},{"type":"Feature","geometry":{"type":"Polygon","coordinates":[[[-117.16469047279361,32.71357178564059],[-117.16469050994895,32.713574543793584],[-117.1647178765688,32.71357450584198],[-117.16560241013141,32.71357326432079],[-117.16560407087897,32.71357326191057],[-117.16560407656443,32.713574630712756],[-117.1656045040722,32.71367770476488],[-117.16560832535764,32.71459955069828],[-117.16560838900655,32.71461491951674],[-117.16560982958532,32.71553851359138],[-117.16561011177248,32.71571980673511],[-117.16560761398696,32.71673127959145],[-117.16560682355546,32.71688150486836],[-117.1656028597025,32.717635308620544],[-117.1656021505816,32.717770258687914],[-117.16560067246228,32.71850962063899],[-117.16560005233589,32.71882020687028],[-117.16486509096217,32.718823325181134],[-117.16473523295409,32.718823875346715],[-117.16444913599756,32.71882599685991],[-117.16384768329934,32.71883045468653],[-117.16293084523045,32.71883449592246],[-117.16202704094609,32.718841182473206],[-117.16111023109225,32.71884795847468],[-117.16018366782167,32.71885479963718],[-117.15929283913766,32.718858621885246],[-117.15835974510426,32.718862748983],[-117.15744618583807,32.71886947380527],[-117.15655210472727,32.71887330018584],[-117.15562876475924,32.71887733492674],[-117.15533941631693,32.71887945918102],[-117.15533861954287,32.71887946502962],[-117.15530040318659,32.718879745544335],[-117.1547249019681,32.718878468671704],[-117.15472283050248,32.718589893286186],[-117.15471587918117,32.71820823538424],[-117.15470886297031,32.71782305576073],[-117.1538070224893,32.71782977234577],[-117.15379294974105,32.71677444691484],[-117.15378552015157,32.715732811761974],[-117.15377817534234,32.71469942785113],[-117.15468846896447,32.714695505050194],[-117.15559548330134,32.7146888483966],[-117.15651550019085,32.71468208950077],[-117.15742573686855,32.714672644487365],[-117.15833600170103,32.714665943760615],[-117.15925276827006,32.71465918838137],[-117.15925755026174,32.71532241740159],[-117.1592598250325,32.715637747771325],[-117.15926031904331,32.715706316165054],[-117.15932175374492,32.715705863229],[-117.15941435003224,32.71570518049193],[-117.15970348317003,32.715703048188836],[-117.16015758944194,32.7156996978711],[-117.16108089378142,32.71569562924324],[-117.1610782165371,32.71505149975776],[-117.16107717785269,32.71480148331672],[-117.16107712934048,32.71478977275587],[-117.16107651870256,32.71464298093493],[-117.16107245300616,32.71362056396623],[-117.16106793288924,32.712554173346646],[-117.16115203957183,32.7125540966475],[-117.1619164661151,32.71255339906387],[-117.1619652290011,32.712553038491976],[-117.162878749854,32.71254902850557],[-117.16377623521421,32.71254772577751],[-117.1637780783327,32.71254772294221],[-117.1638020527569,32.71254768778167],[-117.16438397639992,32.71254520248533],[-117.16467656104192,32.71254395353473],[-117.16467665127541,32.712550593292804],[-117.16468010890331,32.712806085234796],[-117.16468197819422,32.71294418126002],[-117.16468360545569,32.71306440114562],[-117.16469047279361,32.71357178564059]]]},"properties":{"neighborhood":"City Center","crosswalk_note":"Rolled up from DowntownCounts_Monthly area_source_label via Area_Crosswalk.csv (RawCounts_AllYears rows); label 'Core' (used before a naming change) and 'City Center' both map to this canonical neighborhood.","latest_month":"2025-12","latest_total":195.0,"history":[{"date":"2017-01-01","total":117.0},{"date":"2017-02-01","total":168.0},{"date":"2017-03-01","total":169.0},{"date":"2017-04-01","total":121.0},{"date":"2017-05-01","total":145.0},{"date":"2017-06-01","total":173.0},{"date":"2017-07-01","total":158.0},{"date":"2017-08-01","total":169.0},{"date":"2017-09-01","total":195.0},{"date":"2017-10-01","total":174.0},{"date":"2017-11-01","total":162.0},{"date":"2017-12-01","total":147.0},{"date":"2018-01-01","total":123.0},{"date":"2018-02-01","total":156.0},{"date":"2018-03-01","total":128.0},{"date":"2018-04-01","total":111.0},{"date":"2018-05-01","total":180.0},{"date":"2018-06-01","total":118.0},{"date":"2018-07-01","total":139.0},{"date":"2018-08-01","total":146.0},{"date":"2018-09-01","total":129.0},{"date":"2018-10-01","total":104.0},{"date":"2018-11-01","total":146.0},{"date":"2018-12-01","total":147.0},{"date":"2019-01-01","total":132.0},{"date":"2019-02-01","total":109.0},{"date":"2019-03-01","total":130.0},{"date":"2019-04-01","total":107.0},{"date":"2019-05-01","total":146.0},{"date":"2019-06-01","total":157.0},{"date":"2019-07-01","total":147.0},{"date":"2019-08-01","total":124.0},{"date":"2019-09-01","total":192.0},{"date":"2019-10-01","total":170.0},{"date":"2019-11-01","total":103.0},{"date":"2019-12-01","total":124.0},{"date":"2020-01-01","total":126.0},{"date":"2020-02-01","total":160.0},{"date":"2020-03-01","total":134.0},{"date":"2020-04-01","total":91.0},{"date":"2020-05-01","total":122.0},{"date":"2020-06-01","total":140.0},{"date":"2020-07-01","total":121.0},{"date":"2020-08-01","total":104.0},{"date":"2020-09-01","total":125.0},{"date":"2020-10-01","total":111.0},{"date":"2020-11-01","total":126.0},{"date":"2020-12-01","total":134.0},{"date":"2021-01-01","total":153.0},{"date":"2021-02-01","total":140.0},{"date":"2021-03-01","total":151.0},{"date":"2021-04-01","total":133.0},{"date":"2021-05-01","total":138.0},{"date":"2021-06-01","total":143.0},{"date":"2021-07-01","total":123.0},{"date":"2021-08-01","total":152.0},{"date":"2021-09-01","total":96.0},{"date":"2021-10-01","total":145.0},{"date":"2021-11-01","total":181.0},{"date":"2021-12-01","total":185.0},{"date":"2022-01-01","total":213.0},{"date":"2022-02-01","total":186.0},{"date":"2022-03-01","total":214.0},{"date":"2022-04-01","total":275.0},{"date":"2022-05-01","total":224.0},{"date":"2022-06-01","total":241.0},{"date":"2022-07-01","total":234.0},{"date":"2022-08-01","total":268.0},{"date":"2022-09-01","total":235.0},{"date":"2022-10-01","total":284.0},{"date":"2022-11-01","total":235.0},{"date":"2022-12-01","total":271.0},{"date":"2023-01-01","total":270.0},{"date":"2023-02-01","total":266.0},{"date":"2023-03-01","total":342.0},{"date":"2023-04-01","total":290.0},{"date":"2023-05-01","total":342.0},{"date":"2023-06-01","total":236.0},{"date":"2023-07-01","total":187.0},{"date":"2023-08-01","total":203.0},{"date":"2023-09-01","total":173.0},{"date":"2023-10-01","total":204.0},{"date":"2023-11-01","total":235.0},{"date":"2023-12-01","total":129.0},{"date":"2024-01-01","total":198.0},{"date":"2024-02-01","total":172.0},{"date":"2024-03-01","total":221.0},{"date":"2024-04-01","total":237.0},{"date":"2024-05-01","total":219.0},{"date":"2024-06-01","total":199.0},{"date":"2024-07-01","total":208.0},{"date":"2024-08-01","total":209.0},{"date":"2024-09-01","total":134.0},{"date":"2024-10-01","total":227.0},{"date":"2024-11-01","total":151.0},{"date":"2024-12-01","total":156.0},{"date":"2025-01-01","total":179.0},{"date":"2025-02-01","total":176.0},{"date":"2025-03-01","total":161.0},{"date":"2025-04-01","total":154.0},{"date":"2025-05-01","total":148.0},{"date":"2025-06-01","total":129.0},{"date":"2025-07-01","total":null},{"date":"2025-08-01","total":null},{"date":"2025-09-01","total":125.0},{"date":"2025-10-01","total":null},{"date":"2025-11-01","total":null},{"date":"2025-12-01","total":195.0}]}},{"type":"Feature","geometry":{"type":"Polygon","coordinates":[[[-117.15715146668619,32.70546376466416],[-117.15716476587777,32.70545167547886],[-117.15729993531471,32.705328798122586],[-117.1573037318956,32.70532534627858],[-117.15763846535455,32.70502105044972],[-117.15904933940294,32.705932261201454],[-117.15918812577705,32.70618599801628],[-117.15918951884015,32.706578964811236],[-117.15918983570704,32.70666697513421],[-117.15919293463772,32.707282619793915],[-117.1591932216022,32.707562965457655],[-117.15919401100702,32.70833254359269],[-117.15919508740198,32.70938246742374],[-117.15920600122021,32.71044056518738],[-117.15921044199763,32.71150145831195],[-117.15923122223062,32.71257047653296],[-117.15924213687732,32.71362857438902],[-117.15925276827006,32.71465918838137],[-117.15833600170103,32.714665943760615],[-117.15742573686855,32.714672644487365],[-117.15651550019085,32.71468208950077],[-117.15559548330134,32.7146888483966],[-117.15468846896447,32.714695505050194],[-117.15377817534234,32.71469942785113],[-117.15378552015157,32.715732811761974],[-117.15379294974105,32.71677444691484],[-117.152872938956,32.71678393380288],[-117.15197243301522,32.71679327118541],[-117.1504184678161,32.71680737437256],[-117.14949195641856,32.71681688349402],[-117.1485880877546,32.716815226662774],[-117.14821741439698,32.71681242973295],[-117.14812868719498,32.71640079910446],[-117.14806742485929,32.7161318907374],[-117.14802395966852,32.715852757772566],[-117.14802016181207,32.715840878841156],[-117.14801603388571,32.715827592892175],[-117.14801201869821,32.71581427456126],[-117.14800811209334,32.7158009346996],[-117.14800432471867,32.71578757142616],[-117.14800064378413,32.7157741857358],[-117.14799867988337,32.71576684183082],[-117.14799804109226,32.71576507636487],[-117.14799394324032,32.715753694672685],[-117.14798933107785,32.71574051594879],[-117.14798484980477,32.715727306514275],[-117.14798049831766,32.7157140627703],[-117.14797627353605,32.71570079646188],[-117.1479721806735,32.71568749582843],[-117.14796821875517,32.715674169894456],[-117.14796438561115,32.71566081506885],[-117.14796068554445,32.7156474349272],[-117.14795711321284,32.71563402860675],[-117.14795367289187,32.71562059697806],[-117.1479503656756,32.71560714273842],[-117.147947188355,32.71559366500939],[-117.14794414096679,32.715580167397825],[-117.14794122987377,32.71556664625033],[-117.14793844874052,32.71555310792525],[-117.14793579753947,32.71553954971761],[-117.14793328269768,32.715525974285846],[-117.14793090100608,32.715512380751534],[-117.14792864930165,32.71549877274465],[-117.147926530729,32.715485144831945],[-117.14792454749465,32.715471504211244],[-117.14792269535056,32.71545785271703],[-117.14792097641157,32.71544418853033],[-117.14791939281989,32.715430512537324],[-117.14791794350892,32.715416824745795],[-117.14791662743035,32.715403126966926],[-117.14791544036373,32.715389423739985],[-117.14791439399549,32.715375710471335],[-117.14791347980207,32.715361988124755],[-117.14791323369137,32.71535793298508],[-117.14783165872494,32.71469063908539],[-117.14777658999346,32.71439121299041],[-117.14777474703054,32.71421027230162],[-117.1477747169164,32.714207315713175],[-117.14776937034478,32.713682389172135],[-117.14802622086519,32.71368326769651],[-117.1480260667364,32.71368227329706],[-117.14792525222578,32.71302710822873],[-117.14790928899002,32.7127293299196],[-117.14790919708123,32.712727637119805],[-117.14773542898824,32.711659610894635],[-117.14773448670704,32.711533892570316],[-117.1477344807471,32.71153330738403],[-117.14776249378167,32.710456451353444],[-117.14776251479046,32.71045568652446],[-117.14773251375884,32.70942521365323],[-117.14773244651049,32.70935158432205],[-117.14788141104599,32.70872325994981],[-117.14788525447442,32.70870990694695],[-117.14788910752785,32.7086965565791],[-117.14789297021544,32.70868320974795],[-117.14789684569081,32.70866986192186],[-117.14790073188516,32.70865651942802],[-117.14790462342006,32.708643177796894],[-117.1479085288368,32.708629837868095],[-117.14791244388765,32.70861650147593],[-117.14791637172623,32.70860316408885],[-117.14792030602698,32.70858983296671],[-117.14792425312461,32.70857650175129],[-117.14792821090451,32.70856317226146],[-117.14793217725199,32.70854984631611],[-117.14793615426336,32.70853652029292],[-117.14794014092723,32.70852319960981],[-117.14794414038795,32.70850987883334],[-117.14794814630166,32.70849656342023],[-117.14795216500299,32.70848324701211],[-117.14795619437741,32.70846993142789],[-117.14796023233775,32.70845662119145],[-117.14796428099868,32.70844331448396],[-117.14796834241973,32.70843000407644],[-117.1479724103212,32.708416701737235],[-117.14797649528562,32.708403399273685],[-117.14798058240935,32.708390099499454],[-117.14798468235743,32.70837680233699],[-117.14798879300612,32.708363508703385],[-117.14799126724459,32.708355528317995],[-117.14799291644242,32.70835021407477],[-117.14799704633162,32.70833692480951],[-117.1480011890268,32.70832363635257],[-117.1480053424042,32.708310349621165],[-117.14800950434906,32.70829706643422],[-117.14801367697612,32.70828378497286],[-117.14801785814318,32.70827050435084],[-117.1480220532286,32.7082572290378],[-117.14802625790212,32.708243952753044],[-117.14803047010422,32.70823068272552],[-117.14803469406411,32.70821741531743],[-117.1480389275937,32.70820414513428],[-117.1480431750417,32.708190880260105],[-117.1480474288782,32.70817761443745],[-117.14805169237634,32.7081643548565],[-117.14805596869874,32.70815109788728],[-117.14806025461837,32.708137840847954],[-117.1480645512293,32.7081245864359],[-117.14806885642608,32.70811133737159],[-117.14807317229577,32.70809808913109],[-117.14807750098059,32.70808484260067],[-117.14808183609064,32.70807159872848],[-117.1480861839974,32.70805835476295],[-117.14809054263219,32.708045117031304],[-117.14809490978854,32.70803187833572],[-117.14809857160084,32.70802080534699],[-117.14808792906288,32.70801042175908],[-117.14807754168018,32.70799985235707],[-117.14806742017275,32.707989102473384],[-117.14805755286426,32.70797817760362],[-117.14804796647222,32.70796708296368],[-117.14803865142568,32.707955821328525],[-117.1480296109884,32.7079443989867],[-117.14802085802258,32.707932822156714],[-117.14801239041351,32.70792109265755],[-117.14800421037688,32.7079092185888],[-117.14799632539639,32.70789720169944],[-117.14798873343089,32.70788505102191],[-117.14798143983111,32.707872768320726],[-117.1479744542965,32.70786036344442],[-117.14796776934311,32.707847834644085],[-117.1479613957644,32.70783519446559],[-117.14795532930346,32.70782244384169],[-117.14794958499219,32.70780959258208],[-117.1479441532228,32.707796639855076],[-117.14793904051363,32.70778359733584],[-117.14793424472222,32.707770464138314],[-117.14792977665134,32.70775725370995],[-117.14792563306455,32.70774396246739],[-117.14792181306981,32.70773060755029],[-117.14791832518047,32.70771718709311],[-117.1479151609196,32.707703706568125],[-117.14791233423414,32.70769017398942],[-117.14790983985579,32.70767659570762],[-117.1479076756973,32.707662976246574],[-117.14790584927914,32.70764932096204],[-117.14790545050239,32.707645668209466],[-117.14790435429391,32.707635638917324],[-117.14790319715894,32.707621931869184],[-117.14790260830064,32.70761270684253],[-117.14790095451892,32.707599036774866],[-117.14789930073765,32.70758536670721],[-117.14789764266335,32.70757169396556],[-117.14789598568363,32.70755802392115],[-117.1478943244385,32.7075443539078],[-117.14789265786132,32.70753068393325],[-117.14789099341772,32.707517013943146],[-117.14788932366965,32.70750334669688],[-117.14788765282809,32.70748967675332],[-117.14788597878753,32.70747600683306],[-117.14788430584157,32.70746233961006],[-117.14788262540311,32.70744866973632],[-117.14788094497437,32.70743500076425],[-117.14787926563099,32.70742133358778],[-117.14787758202216,32.70740766644231],[-117.14787589518681,32.70739399661514],[-117.14787420518007,32.70738032951625],[-117.14787251197437,32.70736666244065],[-117.14787081876919,32.707352995364985],[-117.14786912236508,32.70733932831264],[-117.14786742596146,32.70732566126025],[-117.14786572635889,32.70731199423117],[-117.14786402355742,32.70729832722534],[-117.14786231758447,32.707284662947814],[-117.14786061158456,32.70727099596525],[-117.1478589013192,32.70725732901373],[-117.14785718895811,32.70724366568439],[-117.14785547336135,32.70722999877169],[-117.14785375782023,32.707216337268925],[-117.14785203793103,32.70720266768223],[-117.14785031916394,32.70718900349777],[-117.14784859719792,32.70717533933655],[-117.14784687096648,32.70716167520639],[-117.14784514260255,32.70714801109171],[-117.14784341317268,32.707134346984795],[-117.14784168161955,32.70712068379511],[-117.1478399458194,32.707107022439786],[-117.14783820783165,32.70709335568991],[-117.14783646883313,32.70707969435785],[-117.14783472660807,32.707066030344016],[-117.14783298545005,32.707052366322365],[-117.14783124005413,32.70703870503683],[-117.14782949144099,32.70702504197124],[-117.14782773961971,32.70701137802721],[-117.14782598465456,32.70699771951647],[-117.14782423390085,32.706984055564675],[-117.14782247570982,32.7069703943722],[-117.14782071431985,32.706956733203],[-117.14781895293962,32.706943072935445],[-117.14781718835128,32.706929411789524],[-117.14781542376349,32.70691575064354],[-117.14781365600439,32.706902092225896],[-117.1478118850463,32.70688843383153],[-117.1478101108342,32.70687477005035],[-117.14780833562052,32.70686111258866],[-117.14780655823759,32.70684745153573],[-117.14780477768336,32.7068337932111],[-117.14780299390263,32.70682013220478],[-117.14780120908355,32.706806473911215],[-117.14779942214125,32.70679281653482],[-117.14772984312754,32.70646883626396],[-117.14772966621706,32.7062726927694],[-117.1477295206071,32.70626886774462],[-117.14772896372503,32.70625513468433],[-117.14772836631688,32.706241401919094],[-117.14772772519248,32.70622767037381],[-117.14772704572097,32.706213943616426],[-117.14772632460179,32.706200211751764],[-117.14772555981239,32.7061864856154],[-117.14772475449693,32.70617275977413],[-117.14772391188258,32.70615903690959],[-117.14772302127696,32.70614531439435],[-117.14772209231508,32.706131595765356],[-117.14772111961874,32.70611787655296],[-117.14772010858458,32.706104163030105],[-117.14771905274027,32.70609044802997],[-117.14771795745504,32.70607673512045],[-117.14771682276552,32.70606302790818],[-117.14771564332106,32.70604932462868],[-117.14771442444483,32.70603562434143],[-117.1477131628732,32.706021920758005],[-117.14771185977362,32.7060082237891],[-117.14771051720564,32.705994526205764],[-117.14770912991033,32.705980835260206],[-117.14770770318334,32.70596714730689],[-117.14770623698804,32.7059534587391],[-117.14770472606548,32.70593977680914],[-117.14770317571129,32.70592609787138],[-117.1477015837926,32.705912421941456],[-117.14769994924288,32.705898749027035],[-117.14769827528924,32.70588508180988],[-117.14769655974357,32.70587141489548],[-117.14769480156696,32.705857750996614],[-117.14769300402315,32.70584409640171],[-117.14769116170632,32.70583044393625],[-117.14768927993047,32.70581679175793],[-117.14768735985396,32.70580314887583],[-117.14768539393808,32.70578950813086],[-117.14768338857237,32.705775868574776],[-117.14768134488773,32.70576223651156],[-117.14767925644853,32.705748608381],[-117.14767712753905,32.70573498595552],[-117.14767496026478,32.70572136651448],[-117.14767274825437,32.705707752809516],[-117.1476704957462,32.705694142104505],[-117.14766820274029,32.705680534399484],[-117.14766586611991,32.70566693783281],[-117.14766349113481,32.70565334425059],[-117.14766107351906,32.70563975368386],[-117.14765861757535,32.705626169708296],[-117.14765611901936,32.705612590551546],[-117.14765357893606,32.70559901800927],[-117.14765099947672,32.70558545386916],[-117.14764837732258,32.705571886432864],[-117.1476457136962,32.705558331020995],[-117.14764301066631,32.705544781306386],[-117.14764026929939,32.70553123728125],[-117.14763747464644,32.705517697250826],[-117.1476346523396,32.705504164635606],[-117.14763178636345,32.70549063774865],[-117.14762887248877,32.705477120227705],[-117.14762592983871,32.70546360471958],[-117.14762293819615,32.70545009588022],[-117.14761990717774,32.70543659544308],[-117.14761683462305,32.70542310071866],[-117.14761372269254,32.70540961439644],[-117.14761056815931,32.705396133794686],[-117.14760737528921,32.705382658882385],[-117.14760413984396,32.705369192395544],[-117.14760086607109,32.70535573249978],[-117.14759754969558,32.705342278324494],[-117.1475941950016,32.70532883164196],[-117.14759079667529,32.70531539429435],[-117.14758735787929,32.70530196265162],[-117.14758388184062,32.70528853939559],[-117.14758035786694,32.705275121898744],[-117.1475767988203,32.70526171637981],[-117.1475731971344,32.705248312974554],[-117.14756989052202,32.705236131083296],[-117.14756956250847,32.70523492153159],[-117.14772961272566,32.70523512805578],[-117.1482124116686,32.70523575143983],[-117.14853182095611,32.70523615953213],[-117.14943215205416,32.70522135067984],[-117.15034240410901,32.705222953852925],[-117.15165578684258,32.7052271004484],[-117.1527936929827,32.70523801482756],[-117.154645899775,32.705408536334616],[-117.15697583839594,32.70562303972952],[-117.1569818037906,32.70561797676453],[-117.15698217066479,32.70561766386731],[-117.15705645128759,32.705550141607226],[-117.1571510207838,32.70546417102254],[-117.15715146668619,32.70546376466416]]]},"properties":{"neighborhood":"East Village","crosswalk_note":"Rolled up from DowntownCounts_Monthly area_source_label via Area_Crosswalk.csv (RawCounts_AllYears rows); East Village's 4 sub-area rows (North/South East/West EV) are summed into East Village via their parent_area field. City Center's early-period label 'Core' and later label 'City Center' both map to canonical_area 'City Center'.","latest_month":"2025-12","latest_total":1109.0,"history":[{"date":"2017-01-01","total":1258.0},{"date":"2017-02-01","total":1326.0},{"date":"2017-03-01","total":1566.0},{"date":"2017-04-01","total":1196.0},{"date":"2017-05-01","total":1096.0},{"date":"2017-06-01","total":1562.0},{"date":"2017-07-01","total":1468.0},{"date":"2017-08-01","total":1770.0},{"date":"2017-09-01","total":1536.0},{"date":"2017-10-01","total":1268.0},{"date":"2017-11-01","total":1160.0},{"date":"2017-12-01","total":1327.0},{"date":"2018-01-01","total":990.0},{"date":"2018-02-01","total":978.0},{"date":"2018-03-01","total":1188.0},{"date":"2018-04-01","total":1004.0},{"date":"2018-05-01","total":1046.0},{"date":"2018-06-01","total":918.0},{"date":"2018-07-01","total":1242.0},{"date":"2018-08-01","total":1164.0},{"date":"2018-09-01","total":1002.0},{"date":"2018-10-01","total":1008.0},{"date":"2018-11-01","total":947.0},{"date":"2018-12-01","total":964.0},{"date":"2019-01-01","total":1086.0},{"date":"2019-02-01","total":994.0},{"date":"2019-03-01","total":856.0},{"date":"2019-04-01","total":1004.0},{"date":"2019-05-01","total":1013.0},{"date":"2019-06-01","total":936.0},{"date":"2019-07-01","total":1208.0},{"date":"2019-08-01","total":940.0},{"date":"2019-09-01","total":1067.0},{"date":"2019-10-01","total":959.0},{"date":"2019-11-01","total":833.0},{"date":"2019-12-01","total":740.0},{"date":"2020-01-01","total":934.0},{"date":"2020-02-01","total":818.0},{"date":"2020-03-01","total":522.0},{"date":"2020-04-01","total":660.0},{"date":"2020-05-01","total":665.0},{"date":"2020-06-01","total":836.0},{"date":"2020-07-01","total":796.0},{"date":"2020-08-01","total":652.0},{"date":"2020-09-01","total":894.0},{"date":"2020-10-01","total":802.0},{"date":"2020-11-01","total":849.0},{"date":"2020-12-01","total":668.0},{"date":"2021-01-01","total":818.0},{"date":"2021-02-01","total":762.0},{"date":"2021-03-01","total":879.0},{"date":"2021-04-01","total":804.0},{"date":"2021-05-01","total":1026.0},{"date":"2021-06-01","total":998.0},{"date":"2021-07-01","total":929.0},{"date":"2021-08-01","total":939.0},{"date":"2021-09-01","total":875.0},{"date":"2021-10-01","total":1082.0},{"date":"2021-11-01","total":1082.0},{"date":"2021-12-01","total":1224.0},{"date":"2022-01-01","total":1356.0},{"date":"2022-02-01","total":1482.0},{"date":"2022-03-01","total":1244.0},{"date":"2022-04-01","total":1310.0},{"date":"2022-05-01","total":1248.0},{"date":"2022-06-01","total":1424.0},{"date":"2022-07-01","total":1196.0},{"date":"2022-08-01","total":1580.0},{"date":"2022-09-01","total":1692.0},{"date":"2022-10-01","total":1426.0},{"date":"2022-11-01","total":1520.0},{"date":"2022-12-01","total":1700.0},{"date":"2023-01-01","total":1588.0},{"date":"2023-02-01","total":1563.0},{"date":"2023-03-01","total":1322.0},{"date":"2023-04-01","total":1646.0},{"date":"2023-05-01","total":1836.0},{"date":"2023-06-01","total":1458.0},{"date":"2023-07-01","total":1842.0},{"date":"2023-08-01","total":1722.0},{"date":"2023-09-01","total":1814.0},{"date":"2023-10-01","total":1739.0},{"date":"2023-11-01","total":1358.0},{"date":"2023-12-01","total":995.0},{"date":"2024-01-01","total":1060.0},{"date":"2024-02-01","total":1106.0},{"date":"2024-03-01","total":761.0},{"date":"2024-04-01","total":733.0},{"date":"2024-05-01","total":815.0},{"date":"2024-06-01","total":902.0},{"date":"2024-07-01","total":916.0},{"date":"2024-08-01","total":899.0},{"date":"2024-09-01","total":890.0},{"date":"2024-10-01","total":793.0},{"date":"2024-11-01","total":781.0},{"date":"2024-12-01","total":984.0},{"date":"2025-01-01","total":871.0},{"date":"2025-02-01","total":817.0},{"date":"2025-03-01","total":827.0},{"date":"2025-04-01","total":802.0},{"date":"2025-05-01","total":811.0},{"date":"2025-06-01","total":815.0},{"date":"2025-07-01","total":null},{"date":"2025-08-01","total":null},{"date":"2025-09-01","total":852.0},{"date":"2025-10-01","total":null},{"date":"2025-11-01","total":null},{"date":"2025-12-01","total":1109.0}]}},{"type":"Feature","geometry":{"type":"Polygon","coordinates":[[[-117.16994886009054,32.71459896734149],[-117.16996990394523,32.71459883471739],[-117.17006559861224,32.714598237187374],[-117.17012739245101,32.714598439865995],[-117.17097651742745,32.71460121677136],[-117.17108975919763,32.71460158663668],[-117.17109511679134,32.715313823065],[-117.17109671230496,32.71552590728791],[-117.17109806350807,32.715705527902614],[-117.17109811115392,32.715711924507865],[-117.17110606299255,32.71672934714983],[-117.17110775577497,32.7169459366619],[-117.17110764229957,32.71695967735981],[-117.17110751605307,32.716973420858366],[-117.17110737377915,32.716987161771335],[-117.1711072144395,32.71700090281184],[-117.17110704336713,32.71701464393991],[-117.17110685522896,32.71702838519546],[-117.17110665749125,32.7170421265227],[-117.17110643628804,32.71705586802519],[-117.17110620332383,32.71706960691029],[-117.17110595652198,32.71708334860401],[-117.17110569369254,32.71709708771216],[-117.17110541489222,32.717110829644824],[-117.17110512219757,32.71712456897602],[-117.17110481457033,32.717138308418825],[-117.1711044930771,32.717152047965094],[-117.1711041523847,32.7171657876548],[-117.17110379779807,32.71717952474302],[-117.17110343150686,32.7171932646239],[-117.17110304814037,32.71720700373055],[-117.17110264872746,32.71722073844828],[-117.17110223657166,32.717234478671706],[-117.17110180729341,32.71724821361259],[-117.17110136311076,32.71726195136995],[-117.17110090826185,32.71727568920697],[-117.17110043101393,32.7172894272113],[-117.17109994304325,32.71730315988526],[-117.17109944015867,32.71731689447407],[-117.1710989202176,32.71733063009199],[-117.171098387477,32.7173443658055],[-117.17109783550895,32.717358098957426],[-117.17109727290288,32.71737183489401],[-117.17109669532637,32.71738556733541],[-117.1710961006933,32.71739930080597],[-117.17109549323243,32.717413031667064],[-117.17109486553397,32.71742676538456],[-117.17109422927416,32.71744049646071],[-117.17109357273905,32.717454226786586],[-117.17109290341381,32.71746795810971],[-117.17109222126074,32.71748168682339],[-117.17109152203226,32.71749541476288],[-117.17109080788028,32.71750914371557],[-117.17109007666235,32.7175228727957],[-117.17108933263533,32.71753660106973],[-117.17108857155169,32.7175503303729],[-117.17108779867851,32.71756405435365],[-117.17108700875814,32.717577780265174],[-117.17108620281942,32.717591504492894],[-117.1710853840811,32.717605228816176],[-117.17108454829548,32.71761895507022],[-117.17108370072972,32.71763267690354],[-117.17108283608847,32.71764639796268],[-117.17108195545708,32.71766012004291],[-117.17108106095003,32.71767384132503],[-117.17108015151948,32.717687563620366],[-117.17107922498512,32.717701282436465],[-117.17107828566043,32.71771500224978],[-117.17107733349843,32.717728718552024],[-117.17107636107978,32.7177424359073],[-117.17107537374707,32.71775615517741],[-117.17107437570074,32.71776987001879],[-117.17107336167373,32.71778358678301],[-117.17107233053339,32.71779729916631],[-117.17107128447894,32.71781101346449],[-117.17107022455815,32.71782472786621],[-117.17106914859059,32.71783843787902],[-117.17106525098119,32.71788887439287],[-117.17104905495107,32.71846905384501],[-117.17104264337928,32.71880442009635],[-117.17102130420719,32.719873753044325],[-117.17008166903761,32.71987526907861],[-117.16996462846829,32.71987614212063],[-117.16917574183694,32.71985627001058],[-117.16827395204062,32.71988049547914],[-117.16739608924873,32.719881531134725],[-117.16648896524445,32.71988278068078],[-117.16559809680052,32.719883897473764],[-117.16559932217447,32.71921806001573],[-117.16560005233589,32.71882020687028],[-117.16560067246228,32.71850962063899],[-117.1656021505816,32.717770258687914],[-117.1656028597025,32.717635308620544],[-117.16560682355546,32.71688150486836],[-117.16560761398696,32.71673127959145],[-117.16561011177248,32.71571980673511],[-117.16560982958532,32.71553851359138],[-117.16560838900655,32.71461491951674],[-117.16573191649164,32.71461323140258],[-117.16636580851187,32.71460456540473],[-117.16647710203486,32.714603044091064],[-117.16648933596802,32.71460287653199],[-117.16917150403181,32.71459665574537],[-117.16918072574401,32.71459669612776],[-117.16981896222084,32.71459949885631],[-117.16993574420106,32.71459904894288],[-117.16994886009054,32.71459896734149]],[[-117.1700642454934,32.715714144471214],[-117.17006426002918,32.71569950996764],[-117.1700642421235,32.71571414447845],[-117.1700642454934,32.715714144471214]]]},"properties":{"neighborhood":"Columbia","crosswalk_note":"Rolled up from DowntownCounts_Monthly area_source_label via Area_Crosswalk.csv (RawCounts_AllYears rows), 1:1 label match.","latest_month":"2025-12","latest_total":32.0,"history":[{"date":"2017-01-01","total":36.0},{"date":"2017-02-01","total":35.0},{"date":"2017-03-01","total":20.0},{"date":"2017-04-01","total":46.0},{"date":"2017-05-01","total":59.0},{"date":"2017-06-01","total":41.0},{"date":"2017-07-01","total":47.0},{"date":"2017-08-01","total":70.0},{"date":"2017-09-01","total":61.0},{"date":"2017-10-01","total":56.0},{"date":"2017-11-01","total":49.0},{"date":"2017-12-01","total":46.0},{"date":"2018-01-01","total":50.0},{"date":"2018-02-01","total":58.0},{"date":"2018-03-01","total":61.0},{"date":"2018-04-01","total":46.0},{"date":"2018-05-01","total":46.0},{"date":"2018-06-01","total":53.0},{"date":"2018-07-01","total":37.0},{"date":"2018-08-01","total":56.0},{"date":"2018-09-01","total":26.0},{"date":"2018-10-01","total":34.0},{"date":"2018-11-01","total":24.0},{"date":"2018-12-01","total":45.0},{"date":"2019-01-01","total":53.0},{"date":"2019-02-01","total":43.0},{"date":"2019-03-01","total":33.0},{"date":"2019-04-01","total":55.0},{"date":"2019-05-01","total":61.0},{"date":"2019-06-01","total":61.0},{"date":"2019-07-01","total":52.0},{"date":"2019-08-01","total":46.0},{"date":"2019-09-01","total":49.0},{"date":"2019-10-01","total":67.0},{"date":"2019-11-01","total":38.0},{"date":"2019-12-01","total":41.0},{"date":"2020-01-01","total":41.0},{"date":"2020-02-01","total":47.0},{"date":"2020-03-01","total":24.0},{"date":"2020-04-01","total":52.0},{"date":"2020-05-01","total":51.0},{"date":"2020-06-01","total":59.0},{"date":"2020-07-01","total":56.0},{"date":"2020-08-01","total":48.0},{"date":"2020-09-01","total":56.0},{"date":"2020-10-01","total":42.0},{"date":"2020-11-01","total":55.0},{"date":"2020-12-01","total":53.0},{"date":"2021-01-01","total":55.0},{"date":"2021-02-01","total":47.0},{"date":"2021-03-01","total":45.0},{"date":"2021-04-01","total":42.0},{"date":"2021-05-01","total":60.0},{"date":"2021-06-01","total":53.0},{"date":"2021-07-01","total":57.0},{"date":"2021-08-01","total":60.0},{"date":"2021-09-01","total":80.0},{"date":"2021-10-01","total":57.0},{"date":"2021-11-01","total":60.0},{"date":"2021-12-01","total":59.0},{"date":"2022-01-01","total":61.0},{"date":"2022-02-01","total":71.0},{"date":"2022-03-01","total":63.0},{"date":"2022-04-01","total":63.0},{"date":"2022-05-01","total":47.0},{"date":"2022-06-01","total":85.0},{"date":"2022-07-01","total":35.0},{"date":"2022-08-01","total":56.0},{"date":"2022-09-01","total":31.0},{"date":"2022-10-01","total":29.0},{"date":"2022-11-01","total":33.0},{"date":"2022-12-01","total":27.0},{"date":"2023-01-01","total":36.0},{"date":"2023-02-01","total":48.0},{"date":"2023-03-01","total":45.0},{"date":"2023-04-01","total":46.0},{"date":"2023-05-01","total":38.0},{"date":"2023-06-01","total":34.0},{"date":"2023-07-01","total":21.0},{"date":"2023-08-01","total":14.0},{"date":"2023-09-01","total":30.0},{"date":"2023-10-01","total":28.0},{"date":"2023-11-01","total":37.0},{"date":"2023-12-01","total":29.0},{"date":"2024-01-01","total":34.0},{"date":"2024-02-01","total":40.0},{"date":"2024-03-01","total":41.0},{"date":"2024-04-01","total":34.0},{"date":"2024-05-01","total":36.0},{"date":"2024-06-01","total":40.0},{"date":"2024-07-01","total":33.0},{"date":"2024-08-01","total":35.0},{"date":"2024-09-01","total":24.0},{"date":"2024-10-01","total":34.0},{"date":"2024-11-01","total":45.0},{"date":"2024-12-01","total":40.0},{"date":"2025-01-01","total":37.0},{"date":"2025-02-01","total":39.0},{"date":"2025-03-01","total":14.0},{"date":"2025-04-01","total":29.0},{"date":"2025-05-01","total":33.0},{"date":"2025-06-01","total":21.0},{"date":"2025-07-01","total":null},{"date":"2025-08-01","total":null},{"date":"2025-09-01","total":31.0},{"date":"2025-10-01","total":null},{"date":"2025-11-01","total":null},{"date":"2025-12-01","total":32.0}]}}],"note":"history entries with total = null mark months the area was not surveyed. They are not zeros; never zero-fill or interpolate across them."}