{"type": "FeatureCollection", "features": [{"type": "Feature", "geometry": {"type": "Point", "coordinates": [-117.15463743992916, 32.71626317863162]}, "properties": {"stop_id": "11tbro", "stop_name": "11th Ave & Broadway", "wheelchair_boarding": 0}}, {"type": "Feature", "geometry": {"type": "Point", "coordinates": [-117.15336600052579, 32.70599718976037]}, "properties": {"stop_id": "12tS", "stop_name": "12th & Imperial Station", "wheelchair_boarding": 0}}, {"type": "Feature", "geometry": {"type": "Point", "coordinates": [-117.15430602056298, 32.70522429016329]}, "properties": {"stop_id": "imtS", "stop_name": "12th & Imperial Station Bayside", "wheelchair_boarding": 0}}, {"type": "Feature", "geometry": {"type": "Point", "coordinates": [-117.15286309060443, 32.70568011993114]}, "properties": {"stop_id": "imp12", "stop_name": "12th & Imperial Transit Center", "wheelchair_boarding": 0}}, {"type": "Feature", "geometry": {"type": "Point", "coordinates": [-117.15969107935335, 32.71675728915142]}, "properties": {"stop_id": "5thS", "stop_name": "5th Avenue Station", "wheelchair_boarding": 0}}, {"type": "Feature", "geometry": {"type": "Point", "coordinates": [-117.16896824750303, 32.71616464918259]}, "properties": {"stop_id": "apzS", "stop_name": "America Plaza Station", "wheelchair_boarding": 0}}, {"type": "Feature", "geometry": {"type": "Point", "coordinates": [-117.1683426077466, 32.71699743963281]}, "properties": {"stop_id": "amptro", "stop_name": "America Plaza Trolley Station", "wheelchair_boarding": 0}}, {"type": "Feature", "geometry": {"type": "Point", "coordinates": [-117.16888189810294, 32.71570958986069]}, "properties": {"stop_id": "broket", "stop_name": "Broadway & Kettner Bl", "wheelchair_boarding": 0}}, {"type": "Feature", "geometry": {"type": "Point", "coordinates": [-117.15422298060736, 32.716302219052764]}, "properties": {"stop_id": "ccoS", "stop_name": "City College Station", "wheelchair_boarding": 0}}, {"type": "Feature", "geometry": {"type": "Point", "coordinates": [-117.15392732064053, 32.71581487883642]}, "properties": {"stop_id": "citcol", "stop_name": "City College Trolley Station", "wheelchair_boarding": 0}}, {"type": "Feature", "geometry": {"type": "Point", "coordinates": [-117.16245606856981, 32.71673631950079]}, "properties": {"stop_id": "civS", "stop_name": "Civic Center Station", "wheelchair_boarding": 0}}, {"type": "Feature", "geometry": {"type": "Point", "coordinates": [-117.16344024930234, 32.70892737974242]}, "properties": {"stop_id": "conS", "stop_name": "Convention Center Station", "wheelchair_boarding": 0}}, {"type": "Feature", "geometry": {"type": "Point", "coordinates": [-117.16604803755123, 32.71663932917616]}, "properties": {"stop_id": "corsta", "stop_name": "Courthouse Station", "wheelchair_boarding": 0}}, {"type": "Feature", "geometry": {"type": "Point", "coordinates": [-117.1596690298882, 32.70683972002313]}, "properties": {"stop_id": "gasS", "stop_name": "Gaslamp Quarter Station", "wheelchair_boarding": 0}}, {"type": "Feature", "geometry": {"type": "Point", "coordinates": [-117.15375610016198, 32.71097517891689]}, "properties": {"stop_id": "marS", "stop_name": "Park & Market Station", "wheelchair_boarding": 0}}, {"type": "Feature", "geometry": {"type": "Point", "coordinates": [-117.1539809309767, 32.71153230939297]}, "properties": {"stop_id": "marpar", "stop_name": "Park & Market Trolley Station", "wheelchair_boarding": 0}}, {"type": "Feature", "geometry": {"type": "Point", "coordinates": [-117.16981620769386, 32.71763235946344]}, "properties": {"stop_id": "sfdS", "stop_name": "Santa Fe Depot", "wheelchair_boarding": 0}}, {"type": "Feature", "geometry": {"type": "Point", "coordinates": [-117.16858521841357, 32.71191830018324]}, "properties": {"stop_id": "seaS", "stop_name": "Seaport Village Station", "wheelchair_boarding": 0}}, {"type": "Feature", "geometry": {"type": "Point", "coordinates": [-117.1556788093554, 32.7185725287471]}, "properties": {"stop_id": "12049", "stop_name": "10th Av & A St", "wheelchair_boarding": 2}}, {"type": "Feature", "geometry": {"type": "Point", "coordinates": [-117.15565209039917, 32.715972638569006]}, "properties": {"stop_id": "11656", "stop_name": "10th Av & Broadway", "wheelchair_boarding": 0}}, {"type": "Feature", "geometry": {"type": "Point", "coordinates": [-117.1556650903264, 32.71692077910841]}, "properties": {"stop_id": "11654", "stop_name": "10th Av & C St", "wheelchair_boarding": 1}}, {"type": "Feature", "geometry": {"type": "Point", "coordinates": [-117.15562001022289, 32.713482719221375]}, "properties": {"stop_id": "12048", "stop_name": "10th Av & F St", "wheelchair_boarding": 1}}, {"type": "Feature", "geometry": {"type": "Point", "coordinates": [-117.15558983057616, 32.71022869932635]}, "properties": {"stop_id": "12050", "stop_name": "10th Av & Island Av", "wheelchair_boarding": 1}}, {"type": "Feature", "geometry": {"type": "Point", "coordinates": [-117.15562833974363, 32.71176208892112]}, "properties": {"stop_id": "11657", "stop_name": "10th Av & Market St", "wheelchair_boarding": 2}}, {"type": "Feature", "geometry": {"type": "Point", "coordinates": [-117.15505791012876, 32.70750058023268]}, "properties": {"stop_id": "99005", "stop_name": "10th Av & Park Bl (Petco Park)", "wheelchair_boarding": 1}}, {"type": "Feature", "geometry": {"type": "Point", "coordinates": [-117.15457405026201, 32.71769011886917]}, "properties": {"stop_id": "99367", "stop_name": "11th Av & B St", "wheelchair_boarding": 1}}, {"type": "Feature", "geometry": {"type": "Point", "coordinates": [-117.15455376013296, 32.716346248502695]}, "properties": {"stop_id": "12782", "stop_name": "11th Av & Broadway", "wheelchair_boarding": 1}}, {"type": "Feature", "geometry": {"type": "Point", "coordinates": [-117.15457509952381, 32.716524748574216]}, "properties": {"stop_id": "99343", "stop_name": "11th Av & C St", "wheelchair_boarding": 1}}, {"type": "Feature", "geometry": {"type": "Point", "coordinates": [-117.15457838014407, 32.71399333946797]}, "properties": {"stop_id": "12781", "stop_name": "11th Av & F St", "wheelchair_boarding": 1}}, {"type": "Feature", "geometry": {"type": "Point", "coordinates": [-117.1544877404102, 32.70832931987861]}, "properties": {"stop_id": "99010", "stop_name": "11th Av & K St", "wheelchair_boarding": 1}}, {"type": "Feature", "geometry": {"type": "Point", "coordinates": [-117.15452241046745, 32.711390909343635]}, "properties": {"stop_id": "12441", "stop_name": "11th Av & Market St", "wheelchair_boarding": 1}}, {"type": "Feature", "geometry": {"type": "Point", "coordinates": [-117.15320600135644, 32.705865329689125]}, "properties": {"stop_id": "75102", "stop_name": "12th & Imperial Station", "wheelchair_boarding": 0}}, {"type": "Feature", "geometry": {"type": "Point", "coordinates": [-117.15331403129596, 32.70578015981976]}, "properties": {"stop_id": "75103", "stop_name": "12th & Imperial Station", "wheelchair_boarding": 0}}, {"type": "Feature", "geometry": {"type": "Point", "coordinates": [-117.15388801078754, 32.705229270055796]}, "properties": {"stop_id": "75100", "stop_name": "12th & Imperial Station (Bayside)", "wheelchair_boarding": 0}}, {"type": "Feature", "geometry": {"type": "Point", "coordinates": [-117.15288484143151, 32.7060900399536]}, "properties": {"stop_id": "70009", "stop_name": "12th & Imperial Transit Center", "wheelchair_boarding": 0}}, {"type": "Feature", "geometry": {"type": "Point", "coordinates": [-117.15227104075167, 32.705546200021196]}, "properties": {"stop_id": "88899", "stop_name": "12th & Imperial Transit Center", "wheelchair_boarding": 0}}, {"type": "Feature", "geometry": {"type": "Point", "coordinates": [-117.15321273088449, 32.706046409481274]}, "properties": {"stop_id": "91101", "stop_name": "12th & Imperial Transit Center", "wheelchair_boarding": 1}}, {"type": "Feature", "geometry": {"type": "Point", "coordinates": [-117.15293506087346, 32.70559768967411]}, "properties": {"stop_id": "91102", "stop_name": "12th & Imperial Transit Center", "wheelchair_boarding": 1}}, {"type": "Feature", "geometry": {"type": "Point", "coordinates": [-117.15189872023957, 32.713734268838174]}, "properties": {"stop_id": "88984", "stop_name": "14th St & F St", "wheelchair_boarding": 0}}, {"type": "Feature", "geometry": {"type": "Point", "coordinates": [-117.16371744789197, 32.71964287915666]}, "properties": {"stop_id": "12411", "stop_name": "1st Av & Ash St", "wheelchair_boarding": 1}}, {"type": "Feature", "geometry": {"type": "Point", "coordinates": [-117.1637378584033, 32.715527099227366]}, "properties": {"stop_id": "12751", "stop_name": "1st Av & Broadway", "wheelchair_boarding": 0}}, {"type": "Feature", "geometry": {"type": "Point", "coordinates": [-117.16373738857872, 32.71592123966809]}, "properties": {"stop_id": "99118", "stop_name": "1st Av & Broadway", "wheelchair_boarding": 1}}, {"type": "Feature", "geometry": {"type": "Point", "coordinates": [-117.16369836847714, 32.716861528874645]}, "properties": {"stop_id": "60546", "stop_name": "1st Av & C St", "wheelchair_boarding": 1}}, {"type": "Feature", "geometry": {"type": "Point", "coordinates": [-117.16367482822156, 32.71270868955833]}, "properties": {"stop_id": "12750", "stop_name": "1st Av & G St", "wheelchair_boarding": 1}}, {"type": "Feature", "geometry": {"type": "Point", "coordinates": [-117.16298114819202, 32.72012657857507]}, "properties": {"stop_id": "11639", "stop_name": "2nd Av & Ash St", "wheelchair_boarding": 1}}, {"type": "Feature", "geometry": {"type": "Point", "coordinates": [-117.16302647875739, 32.721049738613665]}, "properties": {"stop_id": "11640", "stop_name": "2nd Av & Beech St", "wheelchair_boarding": 1}}, {"type": "Feature", "geometry": {"type": "Point", "coordinates": [-117.16187212898463, 32.717584159073105]}, "properties": {"stop_id": "99019", "stop_name": "3rd Av & B St", "wheelchair_boarding": 1}}, {"type": "Feature", "geometry": {"type": "Point", "coordinates": [-117.16116731906828, 32.71954080846241]}, "properties": {"stop_id": "12035", "stop_name": "4th Av & Ash St", "wheelchair_boarding": 1}}, {"type": "Feature", "geometry": {"type": "Point", "coordinates": [-117.1611631292253, 32.71724857935527]}, "properties": {"stop_id": "12036", "stop_name": "4th Av & B St", "wheelchair_boarding": 1}}, {"type": "Feature", "geometry": {"type": "Point", "coordinates": [-117.16120946802894, 32.72173106875525]}, "properties": {"stop_id": "12032", "stop_name": "4th Av & Cedar St", "wheelchair_boarding": 1}}, {"type": "Feature", "geometry": {"type": "Point", "coordinates": [-117.16118893862658, 32.72320441866003]}, "properties": {"stop_id": "11642", "stop_name": "4th Av & Date St", "wheelchair_boarding": 1}}, {"type": "Feature", "geometry": {"type": "Point", "coordinates": [-117.16108979898102, 32.712356769358465]}, "properties": {"stop_id": "12034", "stop_name": "4th Av & G St", "wheelchair_boarding": 1}}, {"type": "Feature", "geometry": {"type": "Point", "coordinates": [-117.16115502884944, 32.71684213943025]}, "properties": {"stop_id": "89025", "stop_name": "4th Ave & C St", "wheelchair_boarding": 0}}, {"type": "Feature", "geometry": {"type": "Point", "coordinates": [-117.1600397087433, 32.71802645884305]}, "properties": {"stop_id": "12765", "stop_name": "5th Av & B St", "wheelchair_boarding": 1}}, {"type": "Feature", "geometry": {"type": "Point", "coordinates": [-117.16013813898041, 32.72126073820045]}, "properties": {"stop_id": "12766", "stop_name": "5th Av & Beech St", "wheelchair_boarding": 0}}, {"type": "Feature", "geometry": {"type": "Point", "coordinates": [-117.16002136928854, 32.71656438939145]}, "properties": {"stop_id": "12434", "stop_name": "5th Av & C St", "wheelchair_boarding": 1}}, {"type": "Feature", "geometry": {"type": "Point", "coordinates": [-117.16153882938767, 32.704533930894065]}, "properties": {"stop_id": "99441", "stop_name": "5th Av Pier", "wheelchair_boarding": 2}}, {"type": "Feature", "geometry": {"type": "Point", "coordinates": [-117.15822791918858, 32.71349899898825]}, "properties": {"stop_id": "89026", "stop_name": "7th Av & F St", "wheelchair_boarding": 0}}, {"type": "Feature", "geometry": {"type": "Point", "coordinates": [-117.15639532962122, 32.71647839926503]}, "properties": {"stop_id": "12438", "stop_name": "9th Av & C St", "wheelchair_boarding": 1}}, {"type": "Feature", "geometry": {"type": "Point", "coordinates": [-117.16879916737534, 32.71638111961517]}, "properties": {"stop_id": "75084", "stop_name": "America Plaza Station", "wheelchair_boarding": 0}}, {"type": "Feature", "geometry": {"type": "Point", "coordinates": [-117.16880199770237, 32.71662213966036]}, "properties": {"stop_id": "75085", "stop_name": "America Plaza Station", "wheelchair_boarding": 0}}, {"type": "Feature", "geometry": {"type": "Point", "coordinates": [-117.15987550909317, 32.71786825858814]}, "properties": {"stop_id": "40244", "stop_name": "B St & 5th Av", "wheelchair_boarding": 1}}, {"type": "Feature", "geometry": {"type": "Point", "coordinates": [-117.1500375913085, 32.71569215892585]}, "properties": {"stop_id": "10489", "stop_name": "Broadway & 15th St", "wheelchair_boarding": 1}}, {"type": "Feature", "geometry": {"type": "Point", "coordinates": [-117.15019518097704, 32.71584217844329]}, "properties": {"stop_id": "10863", "stop_name": "Broadway & 15th St", "wheelchair_boarding": 1}}, {"type": "Feature", "geometry": {"type": "Point", "coordinates": [-117.16365862863285, 32.715850369121405]}, "properties": {"stop_id": "10840", "stop_name": "Broadway & 1st Av", "wheelchair_boarding": 1}}, {"type": "Feature", "geometry": {"type": "Point", "coordinates": [-117.1639211483304, 32.71564502897993]}, "properties": {"stop_id": "13314", "stop_name": "Broadway & 1st Av", "wheelchair_boarding": 0}}, {"type": "Feature", "geometry": {"type": "Point", "coordinates": [-117.14593804108985, 32.71571650799074]}, "properties": {"stop_id": "10119", "stop_name": "Broadway & 20th St", "wheelchair_boarding": 1}}, {"type": "Feature", "geometry": {"type": "Point", "coordinates": [-117.14565346187425, 32.71586699874011]}, "properties": {"stop_id": "10873", "stop_name": "Broadway & 20th St", "wheelchair_boarding": 1}}, {"type": "Feature", "geometry": {"type": "Point", "coordinates": [-117.16278192847983, 32.71577137911939]}, "properties": {"stop_id": "13313", "stop_name": "Broadway & 2nd Av", "wheelchair_boarding": 0}}, {"type": "Feature", "geometry": {"type": "Point", "coordinates": [-117.1620955392831, 32.71560906951406]}, "properties": {"stop_id": "10094", "stop_name": "Broadway & 3rd Av", "wheelchair_boarding": 0}}, {"type": "Feature", "geometry": {"type": "Point", "coordinates": [-117.16086839901182, 32.71578579942196]}, "properties": {"stop_id": "10841", "stop_name": "Broadway & 4th Av", "wheelchair_boarding": 1}}, {"type": "Feature", "geometry": {"type": "Point", "coordinates": [-117.1602850894399, 32.71565542911315]}, "properties": {"stop_id": "10097", "stop_name": "Broadway & 5th Av", "wheelchair_boarding": 0}}, {"type": "Feature", "geometry": {"type": "Point", "coordinates": [-117.16003909931233, 32.71576305931995]}, "properties": {"stop_id": "13312", "stop_name": "Broadway & 5th Av", "wheelchair_boarding": 0}}, {"type": "Feature", "geometry": {"type": "Point", "coordinates": [-117.15946255928871, 32.7156587487151]}, "properties": {"stop_id": "10099", "stop_name": "Broadway & 6th Av", "wheelchair_boarding": 0}}, {"type": "Feature", "geometry": {"type": "Point", "coordinates": [-117.15723405912539, 32.71580598897053]}, "properties": {"stop_id": "13311", "stop_name": "Broadway & 8th Av", "wheelchair_boarding": 0}}, {"type": "Feature", "geometry": {"type": "Point", "coordinates": [-117.15661792021614, 32.71564560925915]}, "properties": {"stop_id": "13315", "stop_name": "Broadway & 9th Av", "wheelchair_boarding": 0}}, {"type": "Feature", "geometry": {"type": "Point", "coordinates": [-117.16725070752011, 32.71579896903222]}, "properties": {"stop_id": "10836", "stop_name": "Broadway & Columbia St", "wheelchair_boarding": 1}}, {"type": "Feature", "geometry": {"type": "Point", "coordinates": [-117.1649401980816, 32.715593499066706]}, "properties": {"stop_id": "10090", "stop_name": "Broadway & Front St", "wheelchair_boarding": 0}}, {"type": "Feature", "geometry": {"type": "Point", "coordinates": [-117.16880615771511, 32.71561697980855]}, "properties": {"stop_id": "10454", "stop_name": "Broadway & Kettner Bl", "wheelchair_boarding": 1}}, {"type": "Feature", "geometry": {"type": "Point", "coordinates": [-117.16892565780907, 32.7158524596012]}, "properties": {"stop_id": "10833", "stop_name": "Broadway & Kettner Bl", "wheelchair_boarding": 1}}, {"type": "Feature", "geometry": {"type": "Point", "coordinates": [-117.17247981675615, 32.715595049566915]}, "properties": {"stop_id": "10449", "stop_name": "Broadway & N Harbor Dr", "wheelchair_boarding": 1}}, {"type": "Feature", "geometry": {"type": "Point", "coordinates": [-117.17177034665572, 32.71583947995819]}, "properties": {"stop_id": "10828", "stop_name": "Broadway & Pacific Hwy", "wheelchair_boarding": 1}}, {"type": "Feature", "geometry": {"type": "Point", "coordinates": [-117.17046078758915, 32.715593649801406]}, "properties": {"stop_id": "99026", "stop_name": "Broadway & Pacific Hwy", "wheelchair_boarding": 1}}, {"type": "Feature", "geometry": {"type": "Point", "coordinates": [-117.15400088014192, 32.715696158389925]}, "properties": {"stop_id": "10109", "stop_name": "Broadway & Park Bl", "wheelchair_boarding": 1}}, {"type": "Feature", "geometry": {"type": "Point", "coordinates": [-117.1540509999854, 32.7158277184536]}, "properties": {"stop_id": "99342", "stop_name": "Broadway & Park Bl", "wheelchair_boarding": 2}}, {"type": "Feature", "geometry": {"type": "Point", "coordinates": [-117.16667279777334, 32.71556413901097]}, "properties": {"stop_id": "10086", "stop_name": "Broadway & State St", "wheelchair_boarding": 1}}, {"type": "Feature", "geometry": {"type": "Point", "coordinates": [-117.16537007819015, 32.71581925976829]}, "properties": {"stop_id": "10839", "stop_name": "Broadway & Union St", "wheelchair_boarding": 1}}, {"type": "Feature", "geometry": {"type": "Point", "coordinates": [-117.154161020601, 32.716284258839785]}, "properties": {"stop_id": "75090", "stop_name": "City College Station", "wheelchair_boarding": 0}}, {"type": "Feature", "geometry": {"type": "Point", "coordinates": [-117.15421015995567, 32.71622535845247]}, "properties": {"stop_id": "75091", "stop_name": "City College Station", "wheelchair_boarding": 0}}, {"type": "Feature", "geometry": {"type": "Point", "coordinates": [-117.16245899914432, 32.71670523912568]}, "properties": {"stop_id": "75086", "stop_name": "Civic Center Station", "wheelchair_boarding": 0}}, {"type": "Feature", "geometry": {"type": "Point", "coordinates": [-117.16241705829952, 32.716768218661095]}, "properties": {"stop_id": "75087", "stop_name": "Civic Center Station", "wheelchair_boarding": 0}}, {"type": "Feature", "geometry": {"type": "Point", "coordinates": [-117.16345115896526, 32.70897622022716]}, "properties": {"stop_id": "75096", "stop_name": "Convention Center Station", "wheelchair_boarding": 0}}, {"type": "Feature", "geometry": {"type": "Point", "coordinates": [-117.16330807872737, 32.70881511972032]}, "properties": {"stop_id": "75097", "stop_name": "Convention Center Station", "wheelchair_boarding": 0}}, {"type": "Feature", "geometry": {"type": "Point", "coordinates": [-117.16601170752563, 32.71671078884059]}, "properties": {"stop_id": "75109", "stop_name": "Courthouse Station", "wheelchair_boarding": 0}}, {"type": "Feature", "geometry": {"type": "Point", "coordinates": [-117.15966600945868, 32.71678523868399]}, "properties": {"stop_id": "75088", "stop_name": "Fifth Avenue Station", "wheelchair_boarding": 0}}, {"type": "Feature", "geometry": {"type": "Point", "coordinates": [-117.15970823896824, 32.716719238938495]}, "properties": {"stop_id": "75089", "stop_name": "Fifth Avenue Station", "wheelchair_boarding": 0}}, {"type": "Feature", "geometry": {"type": "Point", "coordinates": [-117.16480842800713, 32.7176201290388]}, "properties": {"stop_id": "12012", "stop_name": "Front St & B St", "wheelchair_boarding": 1}}, {"type": "Feature", "geometry": {"type": "Point", "coordinates": [-117.16479287832868, 32.71580897921798]}, "properties": {"stop_id": "99039", "stop_name": "Front St & Broadway", "wheelchair_boarding": 1}}, {"type": "Feature", "geometry": {"type": "Point", "coordinates": [-117.16473523896656, 32.71370128912814]}, "properties": {"stop_id": "96010", "stop_name": "Front St & F St", "wheelchair_boarding": 1}}, {"type": "Feature", "geometry": {"type": "Point", "coordinates": [-117.15161156126459, 32.71255010932736]}, "properties": {"stop_id": "10487", "stop_name": "G St & 14th St", "wheelchair_boarding": 1}}, {"type": "Feature", "geometry": {"type": "Point", "coordinates": [-117.15975098024961, 32.70693724028516]}, "properties": {"stop_id": "75098", "stop_name": "Gaslamp Quarter Station", "wheelchair_boarding": 0}}, {"type": "Feature", "geometry": {"type": "Point", "coordinates": [-117.15958725942963, 32.70676034051584]}, "properties": {"stop_id": "75099", "stop_name": "Gaslamp Quarter Station", "wheelchair_boarding": 0}}, {"type": "Feature", "geometry": {"type": "Point", "coordinates": [-117.14969045116678, 32.70620957946246]}, "properties": {"stop_id": "10115", "stop_name": "Imperial Av & 16th St", "wheelchair_boarding": 1}}, {"type": "Feature", "geometry": {"type": "Point", "coordinates": [-117.14975382163951, 32.70636578012562]}, "properties": {"stop_id": "11258", "stop_name": "Imperial Av & 16th St", "wheelchair_boarding": 1}}, {"type": "Feature", "geometry": {"type": "Point", "coordinates": [-117.14469229247729, 32.70637511961826]}, "properties": {"stop_id": "10874", "stop_name": "Imperial Av & 21st St", "wheelchair_boarding": 1}}, {"type": "Feature", "geometry": {"type": "Point", "coordinates": [-117.16816368814494, 32.71698777948712]}, "properties": {"stop_id": "99791", "stop_name": "India St & C St", "wheelchair_boarding": 1}}, {"type": "Feature", "geometry": {"type": "Point", "coordinates": [-117.15578424039597, 32.71143111953203]}, "properties": {"stop_id": "10105", "stop_name": "Market St & 10th Av", "wheelchair_boarding": 0}}, {"type": "Feature", "geometry": {"type": "Point", "coordinates": [-117.15517172003479, 32.7116197693818]}, "properties": {"stop_id": "10856", "stop_name": "Market St & 10th Av", "wheelchair_boarding": 0}}, {"type": "Feature", "geometry": {"type": "Point", "coordinates": [-117.15147673135506, 32.71144618912583]}, "properties": {"stop_id": "10488", "stop_name": "Market St & 14th St", "wheelchair_boarding": 1}}, {"type": "Feature", "geometry": {"type": "Point", "coordinates": [-117.15219082077047, 32.71165260953177]}, "properties": {"stop_id": "11256", "stop_name": "Market St & 14th St", "wheelchair_boarding": 1}}, {"type": "Feature", "geometry": {"type": "Point", "coordinates": [-117.14959088167564, 32.71142422899677]}, "properties": {"stop_id": "10116", "stop_name": "Market St & 16th St", "wheelchair_boarding": 1}}, {"type": "Feature", "geometry": {"type": "Point", "coordinates": [-117.14915087160436, 32.711633579327646]}, "properties": {"stop_id": "10866", "stop_name": "Market St & 16th St", "wheelchair_boarding": 1}}, {"type": "Feature", "geometry": {"type": "Point", "coordinates": [-117.14683735197586, 32.71143603882526]}, "properties": {"stop_id": "10118", "stop_name": "Market St & 19th St", "wheelchair_boarding": 1}}, {"type": "Feature", "geometry": {"type": "Point", "coordinates": [-117.1460754720012, 32.71164496894541]}, "properties": {"stop_id": "11263", "stop_name": "Market St & 20th St", "wheelchair_boarding": 1}}, {"type": "Feature", "geometry": {"type": "Point", "coordinates": [-117.1587719799999, 32.71143112956436]}, "properties": {"stop_id": "10474", "stop_name": "Market St & 6th Av", "wheelchair_boarding": 1}}, {"type": "Feature", "geometry": {"type": "Point", "coordinates": [-117.15705087988333, 32.711622449356575]}, "properties": {"stop_id": "10848", "stop_name": "Market St & 8th Av", "wheelchair_boarding": 0}}, {"type": "Feature", "geometry": {"type": "Point", "coordinates": [-117.15397698079195, 32.711463619366015]}, "properties": {"stop_id": "10108", "stop_name": "Market St & Park Bl", "wheelchair_boarding": 1}}, {"type": "Feature", "geometry": {"type": "Point", "coordinates": [-117.15408609021492, 32.711641479711986]}, "properties": {"stop_id": "10858", "stop_name": "Market St & Park Bl", "wheelchair_boarding": 1}}, {"type": "Feature", "geometry": {"type": "Point", "coordinates": [-117.17084697737504, 32.71614870929813]}, "properties": {"stop_id": "99025", "stop_name": "Pacific Hwy & Broadway", "wheelchair_boarding": 1}}, {"type": "Feature", "geometry": {"type": "Point", "coordinates": [-117.15370913004301, 32.71105522890388]}, "properties": {"stop_id": "75092", "stop_name": "Park & Market Station", "wheelchair_boarding": 0}}, {"type": "Feature", "geometry": {"type": "Point", "coordinates": [-117.15378897049607, 32.71091529958658]}, "properties": {"stop_id": "75093", "stop_name": "Park & Market Station", "wheelchair_boarding": 0}}, {"type": "Feature", "geometry": {"type": "Point", "coordinates": [-117.15520815029429, 32.706935489903294]}, "properties": {"stop_id": "99006", "stop_name": "Park Bl & 10th Av (Petco Park)", "wheelchair_boarding": 1}}, {"type": "Feature", "geometry": {"type": "Point", "coordinates": [-117.15383503990533, 32.716010699142565]}, "properties": {"stop_id": "91107", "stop_name": "Park Bl & Broadway", "wheelchair_boarding": 1}}, {"type": "Feature", "geometry": {"type": "Point", "coordinates": [-117.16984903696563, 32.71732015954103]}, "properties": {"stop_id": "75082", "stop_name": "Santa Fe Depot", "wheelchair_boarding": 0}}, {"type": "Feature", "geometry": {"type": "Point", "coordinates": [-117.16976709755212, 32.71731911953707]}, "properties": {"stop_id": "75083", "stop_name": "Santa Fe Depot", "wheelchair_boarding": 0}}, {"type": "Feature", "geometry": {"type": "Point", "coordinates": [-117.16928606739879, 32.71705362954299]}, "properties": {"stop_id": "99589", "stop_name": "Santa Fe Depot Transit Center", "wheelchair_boarding": 0}}, {"type": "Feature", "geometry": {"type": "Point", "coordinates": [-117.168440257763, 32.71173522963327]}, "properties": {"stop_id": "75094", "stop_name": "Seaport Village Station", "wheelchair_boarding": 0}}, {"type": "Feature", "geometry": {"type": "Point", "coordinates": [-117.16860813816744, 32.711996189681294]}, "properties": {"stop_id": "75095", "stop_name": "Seaport Village Station", "wheelchair_boarding": 0}}, {"type": "Feature", "geometry": {"type": "Point", "coordinates": [-117.17005809748959, 32.718865239051055]}, "properties": {"stop_id": "28007", "stop_name": "San Diego - Santa Fe Depot", "wheelchair_boarding": null}}, {"type": "Feature", "geometry": {"type": "Point", "coordinates": [-117.1700570977381, 32.71689023939556]}, "properties": {"stop_id": "28107", "stop_name": "San Diego - Santa Fe Depot", "wheelchair_boarding": null}}]}